QIANFAN-33              
1 61566U 24185Q   25234.91053381  .00000275  00000+0  18971-3 0  9992
2 61566  88.9755  91.2943 0005815 332.4001  27.6866 13.96415960 53555
QIANFAN-34              
1 61567U 24185R   25234.90616292  .00000278  00000+0  17295-3 0  9999
2 61567  88.9734  91.0060 0005381 343.6664  16.4342 14.02169721 53686
QIANFAN-35              
1 61568U 24185S   25234.84702226  .00000509  00000+0  20074-3 0  9992
2 61568  88.9757  90.0313 0004858 307.6268  52.4485 14.27679705 54213
QIANFAN-36              
1 61569U 24185T   25234.83956677  .00000132  00000+0  17236-3 0  9991
2 61569  88.9744  92.7187 0006882  23.4804 336.6663 13.55547620 52769
QIANFAN-37              
1 62238U 24232B   25234.93241529  .00000044  00000+0  49971-4 0  9996
2 62238  88.9930  52.6239 0002575  83.9340 276.2105 13.50960412 84076
QIANFAN-38              
1 62239U 24232C   25234.88324787  .00000051  00000+0  59735-4 0  9996
2 62239  88.9937  52.5371 0015443 152.0111 208.1874 13.50964466 84128
QIANFAN-39              
1 62240U 24232D   25234.93735652  .00000141  00000+0  53771-4 0  9995
2 62240  88.9938  50.0998 0018474  85.8307 274.4997 14.25234917 85460
QIANFAN-40              
1 62241U 24232E   25234.91612646  .00000052  00000+0  62163-4 0  9997
2 62241  88.9965  52.0868 0014244 158.9737 201.2002 13.50961092 84494
